{
  "norad_id": 59567,
  "name": "STARLINK-31689",
  "history": [
    {
      "epoch": "2026-03-28T20:45:07.010208",
      "apogee_km": 483.98904715431127,
      "perigee_km": 482.0776623168895,
      "latitude_deg": 17.439340296820063,
      "longitude_deg": -140.2922108802013,
      "semi_major_axis_km": 6861.1703547356,
      "eccentricity": 0.00013929,
      "inclination_deg": 43.0014,
      "raan_deg": 257.394,
      "arg_perigee_deg": 247.0969,
      "mean_anomaly_deg": 112.9736,
      "mean_motion_rev_day": 15.27585257
    }
  ]
}