{"fetched_at":"2026-03-30T13:17:50Z","count":15418,"tles":[{"name":"STARLINK-31689","line1":"1 59567U 24076D   26087.86466447  .00002777  00000+0  11039-3 0  9998","line2":"2 59567  43.0014 257.3940 0001392 247.0969 112.9736 15.27585257109475","category":"Starlink"}]}